0 PEGASUS DEB
1 24126U 94029FZ  13282.37280016  .00003741  00000-0  10851-2 0   210
2 24126 081.8193 323.9059 0385645 067.0934 055.5901 14.08599973896742
0 PEGASUS DEB
1 24126U 94029FZ  13283.42633222  .00003728  00000-0  10818-2 0   227
2 24126 081.8193 322.9468 0385539 064.0629 358.0108 14.08605446896894
0 PEGASUS DEB
1 24126U 94029FZ  13286.20134297  .00002640  00000-0  76524-3 0   245
2 24126 081.8191 320.4215 0385173 056.0528 030.0843 14.08614348897286
0 PEGASUS DEB
1 24126U 94029FZ  13287.33912917  .00003282  00000-0  95298-3 0   256
2 24126 081.8188 319.3860 0385065 052.7697 039.8324 14.08617070897449
0 PEGASUS DEB
1 24126U 94029FZ  13289.18157729  .00004731  00000-0  13773-2 0   261
2 24126 081.8180 317.7088 0384838 047.4510 023.0044 14.08633806897705
0 PEGASUS DEB
1 24126U 94029FZ  13290.32222297  .00004934  00000-0  14370-2 0   272
2 24126 081.8179 316.6701 0384753 044.1706 047.3296 14.08639851897861
0 PEGASUS DEB
1 24126U 94029FZ  13291.53365041  .00004304  00000-0  12533-2 0   282
2 24126 081.8177 315.5674 0384604 040.6673 070.6442 14.08648728898030
0 PEGASUS DEB
1 24126U 94029FZ  13292.53545155  .00004113  00000-0  11979-2 0   291
2 24126 081.8176 314.6552 0384487 037.7735 110.9399 14.08655099898172
0 PEGASUS DEB
1 24126U 94029FZ  13293.80759497  .00004554  00000-0  13274-2 0   309
2 24126 081.8176 313.4965 0384353 034.0974 082.2204 14.08662677898350
0 PEGASUS DEB
1 24126U 94029FZ  13295.51874194  .00005148  00000-0  15018-2 0   310
2 24126 081.8178 311.9384 0384198 029.1601 119.8176 14.08673842898596
